{
    "links": {
        "self": "http://www.neowsapp.com/rest/v1/neo/3763596?api_key=iIulBulltgU6a56xZRHN4H3l9WmuAYTsLGpBGhQ2"
    },
    "id": "3763596",
    "neo_reference_id": "3763596",
    "name": "(2016 VQ4)",
    "designation": "2016 VQ4",
    "nasa_jpl_url": "http://ssd.jpl.nasa.gov/sbdb.cgi?sstr=3763596",
    "absolute_magnitude_h": 25.5,
    "estimated_diameter": {
        "kilometers": {
            "estimated_diameter_min": 0.0211132445,
            "estimated_diameter_max": 0.0472106499
        },
        "meters": {
            "estimated_diameter_min": 21.113244479,
            "estimated_diameter_max": 47.2106498806
        },
        "miles": {
            "estimated_diameter_min": 0.0131191578,
            "estimated_diameter_max": 0.0293353287
        },
        "feet": {
            "estimated_diameter_min": 69.2691770164,
            "estimated_diameter_max": 154.8905885541
        }
    },
    "is_potentially_hazardous_asteroid": false,
    "close_approach_data": [
        {
            "close_approach_date": "2016-11-14",
            "close_approach_date_full": "2016-Nov-14 02:27",
            "epoch_date_close_approach": 1479090420000,
            "relative_velocity": {
                "kilometers_per_second": "6.4522384629",
                "kilometers_per_hour": "23228.0584664394",
                "miles_per_hour": "14433.0122176606"
            },
            "miss_distance": {
                "astronomical": "0.0717838416",
                "lunar": "27.9239143824",
                "kilometers": "10738709.803777392",
                "miles": "6672724.8537043296"
            },
            "orbiting_body": "Earth"
        }
    ],
    "orbital_data": {
        "orbit_id": "5",
        "orbit_determination_date": "2017-04-06 08:22:15",
        "first_observation_date": "2016-11-09",
        "last_observation_date": "2016-11-30",
        "data_arc_in_days": 21,
        "observations_used": 23,
        "orbit_uncertainty": "8",
        "minimum_orbit_intersection": ".0715012",
        "jupiter_tisserand_invariant": "3.190",
        "epoch_osculation": "2457705.5",
        "eccentricity": ".5818222383189305",
        "semi_major_axis": "2.530359694364972",
        "inclination": "2.252497782290026",
        "ascending_node_longitude": "30.64103676545034",
        "orbital_period": "1470.184428577172",
        "perihelion_distance": "1.058140153237539",
        "perihelion_argument": "25.94955740446355",
        "aphelion_distance": "4.002579235492405",
        "perihelion_time": "2457710.393709263526",
        "mean_anomaly": "358.8016909303179",
        "mean_motion": ".2448672377440455",
        "equinox": "J2000",
        "orbit_class": {
            "orbit_class_type": "AMO",
            "orbit_class_description": "Near-Earth asteroid orbits similar to that of 1221 Amor",
            "orbit_class_range": "1.017 AU < q (perihelion) < 1.3 AU"
        }
    },
    "is_sentry_object": false
}